      2.10          N: GNSS NAV DATA                        RINEX VERSION / TYPE
fic2rin                                 05/11/2023 00:18:04 PGM / RUN BY / DATE
                                                            END OF HEADER
19 23  5 10  1 59 44.0  .314795877784D-03  .511590769747D-11  .000000000000D+00
     .140000000000D+02  .135375000000D+03  .404695428618D-08 -.275661844644D+01
     .718608498573D-05  .937841297127D-02  .410526990891D-05  .515362638092D+04
     .266384000000D+06 -.279396772385D-07  .168618915001D+01  .102445483208D-06
     .973286474271D+00  .300843750000D+03  .228906888765D+01 -.790318634229D-08
     .260725145963D-09  .100000000000D+01  .226100000000D+04  .000000000000D+00
     .240000000000D+01  .000000000000D+00 -.153668224812D-07  .140000000000D+02
     .259680000000D+06  .400000000000D+01
32 23  5 10  1 59 44.0 -.472667161375D-03 -.943600753089D-11  .000000000000D+00
     .130000000000D+02 -.282500000000D+02  .457876215239D-08  .204509840676D+01
    -.162422657013D-05  .690618809313D-02  .867247581482D-05  .515374151421D+04
     .266384000000D+06 -.106170773506D-06 -.157097618233D+01 -.175088644028D-06
     .959223631492D+00  .213593750000D+03 -.220690380992D+01 -.784925552443D-08
     .345371528968D-09  .100000000000D+01  .226100000000D+04  .000000000000D+00
     .240000000000D+01  .000000000000D+00  .465661287308D-09  .130000000000D+02
     .259920000000D+06  .400000000000D+01
17 23  5 10  1 59 44.0  .714191701263D-03  .147792889038D-11  .000000000000D+00
     .300000000000D+01  .123468750000D+03  .407124101210D-08  .134562611628D+01
     .632181763649D-05  .135002580937D-01  .471435487270D-05  .515376423264D+04
     .266384000000D+06  .279396772385D-07  .164161152430D+01 -.391155481339D-06
     .974240898118D+00  .291875000000D+03 -.140821568385D+01 -.805712132573D-08
     .259653672761D-09  .100000000000D+01  .226100000000D+04  .000000000000D+00
     .240000000000D+01  .000000000000D+00 -.111758708954D-07  .300000000000D+01
     .259950000000D+06  .400000000000D+01
16 23  5 10  1 59 44.0 -.502341892570D-03  .318323145621D-11  .000000000000D+00
     .300000000000D+01  .671250000000D+02  .407838416679D-08  .228779455141D+01
     .330992043018D-05  .133346137591D-01  .978074967861D-05  .515359898758D+04
     .266384000000D+06 -.894069671631D-07  .620473927150D+00 -.191852450371D-06
     .965585708612D+00  .194312500000D+03  .786708992124D+00 -.763567519938D-08
    -.342871424828D-09  .100000000000D+01  .226100000000D+04  .000000000000D+00
     .240000000000D+01  .000000000000D+00 -.102445483208D-07  .300000000000D+01
     .266340000000D+06  .400000000000D+01
5  23  5 10  1 59 44.0 -.126593746245D-03 -.147792889038D-11  .000000000000D+00
     .140000000000D+02 -.132625000000D+03  .432160858377D-08  .180571662298D+01
    -.688992440701D-05  .590018671937D-02  .725872814655D-05  .515367261696D+04
     .266384000000D+06 -.782310962677D-07 -.265481072085D+01 -.111758708954D-06
     .965968596698D+00  .246125000000D+03  .114158000103D+01 -.791640117846D-08
     .821462788651D-10  .100000000000D+01  .226100000000D+04  .000000000000D+00
     .240000000000D+01  .000000000000D+00 -.111758708954D-07  .140000000000D+02
     .266370000000D+06  .400000000000D+01
5  23  5 10  3 59 44.0 -.126604456455D-03 -.147792889038D-11  .000000000000D+00
     .150000000000D+02 -.140250000000D+03  .434446667876D-08  .285610722305D+01
    -.729225575924D-05  .590135355014D-02  .766664743423D-05  .515366945267D+04
     .273584000000D+06  .242143869400D-07 -.265486728750D+01 -.894069671631D-07
     .965969484689D+00  .236250000000D+03  .114137057115D+01 -.784389815841D-08
     .792890169915D-10  .100000000000D+01  .226100000000D+04  .000000000000D+00
     .240000000000D+01  .000000000000D+00 -.111758708954D-07  .150000000000D+02
     .266400000000D+06  .400000000000D+01
32 23  5 10  3 59 44.0 -.472734682262D-03 -.943600753089D-11  .000000000000D+00
     .140000000000D+02 -.360000000000D+02  .464626496416D-08  .309528820377D+01
    -.182911753654D-05  .690718262922D-02  .858679413795D-05  .515373960876D+04
     .273584000000D+06  .335276126862D-07 -.157103229256D+01 -.173225998878D-06
     .959226412499D+00  .210625000000D+03 -.220695329751D+01 -.778389565907D-08
     .355371945525D-09  .100000000000D+01  .226100000000D+04  .000000000000D+00
     .240000000000D+01  .000000000000D+00  .465661287308D-09  .140000000000D+02
     .266400000000D+06  .400000000000D+01
16 23  5 10  3 59 44.0 -.502319075167D-03  .318323145621D-11  .000000000000D+00
     .120000000000D+02  .620937500000D+02  .407624122038D-08 -.294514617979D+01
     .316090881824D-05  .133354383288D-01  .986829400063D-05  .515359737396D+04
     .273584000000D+06  .186264514923D-07  .620419718720D+00 -.949949026108D-07
     .965583616639D+00  .190562500000D+03  .786688111895D+00 -.752424198631D-08
    -.365372362083D-09  .100000000000D+01  .226100000000D+04  .000000000000D+00
     .240000000000D+01  .000000000000D+00 -.102445483208D-07  .120000000000D+02
     .266400000000D+06  .400000000000D+01
19 23  5 10  3 59 44.0  .314832665026D-03  .511590769747D-11  .000000000000D+00
     .150000000000D+02  .124000000000D+03  .397159400426D-08 -.170652752075D+01
     .662356615067D-05  .937834079377D-02  .493228435516D-05  .515362483978D+04
     .273584000000D+06 -.134110450745D-06  .168613191041D+01  .819563865662D-07
     .973287973762D+00  .296500000000D+03  .228918363017D+01 -.798926135623D-08
     .265011038773D-09  .100000000000D+01  .226100000000D+04  .000000000000D+00
     .240000000000D+01  .000000000000D+00 -.153668224812D-07  .150000000000D+02
     .266400000000D+06  .400000000000D+01
17 23  5 10  3 59 44.0  .714202411473D-03  .147792889038D-11  .000000000000D+00
     .230000000000D+02  .117781250000D+03  .386087510666D-08  .239576705183D+01
     .608339905739D-05  .135007777717D-01  .456906855106D-05  .515376345634D+04
     .273584000000D+06  .169500708580D-06  .164155635913D+01  .577419996262D-07
     .974243919044D+00  .295125000000D+03 -.140823615300D+01 -.764817572007D-08
     .109290266664D-09  .100000000000D+01  .226100000000D+04  .000000000000D+00
     .240000000000D+01  .000000000000D+00 -.111758708954D-07  .230000000000D+02
     .266400000000D+06  .400000000000D+01
2  23  5 10  4  0  0.0 -.597759149969D-03  .386535248253D-11  .000000000000D+00
     .500000000000D+02 -.468750000000D+01  .425874882255D-08 -.221382107908D+01
     .171363353729D-06  .173458297504D-01  .107660889626D-05  .515952136040D+04
     .273600000000D+06  .171363353729D-06  .254606504190D+01  .298023223877D-06
     .967462521326D+00  .355000000000D+03 -.128938200709D+01 -.795890294883D-08
     .145720355552D-09  .100000000000D+01  .226100000000D+04  .000000000000D+00
     .240000000000D+01  .000000000000D+00 -.176951289177D-07  .500000000000D+02
     .266400000000D+06  .400000000000D+01
1  23  5 10  4  0  0.0  .186507590115D-03 -.295585778076D-11  .000000000000D+00
     .125000000000D+03 -.259375000000D+02  .397052253106D-08  .252549949753D+00
    -.145100057125D-05  .128332080785D-01  .227801501751D-05  .515364715958D+04
     .273600000000D+06 -.726431608200D-07  .264444208854D+01  .165775418282D-06
     .990012546248D+00  .352968750000D+03  .959369632179D+00 -.821927093705D-08
    -.100004165575D-10  .100000000000D+01  .226100000000D+04  .000000000000D+00
     .240000000000D+01  .000000000000D+00  .465661287308D-08  .125000000000D+03
     .266400000000D+06  .400000000000D+01
3  23  5 10  4  0  0.0 -.307656358927D-03  .106865627458D-10  .000000000000D+00
     .860000000000D+02 -.106437500000D+03  .411660004434D-08 -.899628619200D+00
    -.542774796486D-05  .476375094149D-02  .800006091595D-05  .515367617989D+04
     .273600000000D+06 -.186264514923D-08 -.260853584831D+01  .987201929092D-07
     .978922670459D+00  .237500000000D+03  .101709184893D+01 -.781353975101D-08
     .131076888450D-09  .100000000000D+01  .226100000000D+04  .000000000000D+00
     .240000000000D+01  .000000000000D+00  .186264514923D-08  .860000000000D+02
     .266400000000D+06  .400000000000D+01
8  23  5 10  4  0  0.0 -.121677294374D-03 -.170530256582D-11  .000000000000D+00
     .180000000000D+02  .108843750000D+03  .431339395589D-08  .244655171899D+01
     .565871596336D-05  .846147234552D-02  .547431409359D-05  .515370007706D+04
     .273600000000D+06 -.139698386192D-06  .155273483151D+01 -.558793544769D-08
     .958702515202D+00  .272750000000D+03  .263547889919D+00 -.805033532878D-08
     .810748056625D-10  .100000000000D+01  .226100000000D+04  .000000000000D+00
     .240000000000D+01  .000000000000D+00  .512227416039D-08  .180000000000D+02
     .266400000000D+06  .400000000000D+01
7  23  5 10  4  0  0.0  .181953422725D-03 -.920863385545D-11  .000000000000D+00
     .190000000000D+02 -.437500000000D+00  .522128891621D-08 -.375148375967D+00
     .391155481339D-07  .172411549138D-01  .633299350739D-05  .515374032593D+04
     .273600000000D+06 -.949949026108D-07 -.512098540560D+00  .195577740669D-06
     .950456360517D+00  .250750000000D+03 -.219924326720D+01 -.851142596363D-08
    -.318584698903D-09  .100000000000D+01  .226100000000D+04  .000000000000D+00
     .240000000000D+01  .000000000000D+00 -.111758708954D-07  .190000000000D+02
     .266400000000D+06  .400000000000D+01
11 23  5 10  4  0  0.0 -.191347673535D-03 -.136424205266D-10  .000000000000D+00
     .390000000000D+02 -.438437500000D+02  .452340270359D-08  .186617827379D+01
    -.234320759773D-05  .797232612967D-03  .828877091408D-06  .515374553490D+04
     .273600000000D+06 -.558793544769D-07  .267781683828D+01  .298023223877D-07
     .965434194186D+00  .360093750000D+03 -.285086879868D+01 -.841142179805D-08
     .525021869268D-10  .100000000000D+01  .226100000000D+04  .000000000000D+00
     .240000000000D+01  .000000000000D+00 -.884756445885D-08  .390000000000D+02
     .266400000000D+06  .400000000000D+01
